JILIN-1 GAOFEN 03D51    
1 54252U 22155B   26204.88840997  .00070630  00000+0  69753-3 0  9998
2 54252  97.6261 352.6240 0004670 202.6670 157.4383 15.65672500205480
JILIN-1 GAOFEN 03D53    
1 54253U 22155C   26204.86166019  .00040065  00000+0  59910-3 0  9996
2 54253  97.6254 347.6484 0005318 218.3307 141.7569 15.54892671205188
JILIN-1 GAOFEN 03D52    
1 54255U 22155E   26204.82867670  .00060344  00000+0  67021-3 0  9999
2 54255  97.6237 350.7273 0004138 216.5031 143.5945 15.62721882205424
JILIN-1 GAOFEN 03D50    
1 54690U 22167J   26204.83269653  .00012112  00000+0  35668-3 0  9995
2 54690  97.6861  14.1993 0004482 351.2490   8.8673 15.35200849200979
JILIN-1 GAOFEN 03D47    
1 54692U 22167L   26204.84064182  .00011353  00000+0  34213-3 0  9999
2 54692  97.6958  15.9470 0007062 359.8791   0.2449 15.34475825200965
JILIN-1 GAOFEN 03D49    
1 54694U 22167N   26204.83544156  .00013970  00000+0  37321-3 0  9994
2 54694  97.6835  16.6348 0005368  21.7356 338.4115 15.38202155201125
JILIN-1 GAOFEN 03D48    
1 54695U 22167P   26204.82111811  .00012509  00000+0  35973-3 0  9990
2 54695  97.6907  15.9233 0005680   0.1601 359.9642 15.35935217201012
JILIN GAOFEN OBJECT A   
1 68691U 26080A   26204.68665950  .00005984  00000+0  37939-3 0  9994
2 68691  97.6606 280.1542 0010729 302.9298  57.0898 15.09260145 15163
JILIN GAOFEN OBJECT B   
1 68692U 26080B   26204.80296800  .00004722  00000+0  30231-3 0  9990
2 68692  97.6586 280.2775 0015297 281.4343  78.5167 15.08961733 15186
JILIN GAOFEN OBJECT C   
1 68693U 26080C   26204.68708666  .00006351  00000+0  40545-3 0  9994
2 68693  97.6591 280.1323 0013075 283.0210  76.9559 15.08959197 15160
JILIN GAOFEN OBJECT D   
1 68694U 26080D   26204.80345943  .00005367  00000+0  34240-3 0  9995
2 68694  97.6651 280.3598 0015864 293.7192  66.2372 15.09021300 15161
JILIN GAOFEN OBJECT E   
1 68695U 26080E   26204.85168009  .00004938  00000+0  31601-3 0  9998
2 68695  97.6626 280.4256 0013240 303.9154  56.0815 15.08979710 15158
JILIN GAOFEN OBJECT F   
1 68696U 26080F   26204.85079417  .00005041  00000+0  32275-3 0  9997
2 68696  97.6597 280.3897 0011906 306.6196  53.3936 15.08963758 15158
JILIN GAOFEN OBJECT G   
1 68697U 26080G   26204.83692590  .00006412  00000+0  40921-3 0  9999
2 68697  97.6641 280.4650 0014279 302.8469  57.1384 15.08954661 15156
JILIN GAOFEN OBJECT H   
1 68698U 26080H   26204.70211497  .00005842  00000+0  37290-3 0  9990
2 68698  97.6629 280.3198 0014565 305.4095  54.5772 15.08981319 15131
