{"fetched_at":"2026-07-24T07:06:36.888Z","source":"https://celestrak.org/NORAD/elements/gp.php?NAME=JILIN&FORMAT=JSON","constellation":"jilin-1-gaofen","records":[{"OBJECT_NAME":"JILIN-1 GAOFEN 03D51","OBJECT_ID":"2022-155B","EPOCH":"2026-07-23T21:19:18.621408","CLASSIFICATION_TYPE":"U","MEAN_MOTION":15.656725,"ECCENTRICITY":0.000467,"INCLINATION":97.6261,"RA_OF_ASC_NODE":352.624,"ARG_OF_PERICENTER":202.667,"MEAN_ANOMALY":157.4383,"EPHEMERIS_TYPE":0,"NORAD_CAT_ID":54252,"ELEMENT_SET_NO":999,"REV_AT_EPOCH":20548,"BSTAR":0.00069753,"MEAN_MOTION_DOT":0.0007063,"MEAN_MOTION_DDOT":0},{"OBJECT_NAME":"JILIN-1 GAOFEN 03D53","OBJECT_ID":"2022-155C","EPOCH":"2026-07-23T20:40:47.440416","CLASSIFICATION_TYPE":"U","MEAN_MOTION":15.54892671,"ECCENTRICITY":0.0005318,"INCLINATION":97.6254,"RA_OF_ASC_NODE":347.6484,"ARG_OF_PERICENTER":218.3307,"MEAN_ANOMALY":141.7569,"EPHEMERIS_TYPE":0,"NORAD_CAT_ID":54253,"ELEMENT_SET_NO":999,"REV_AT_EPOCH":20518,"BSTAR":0.0005991,"MEAN_MOTION_DOT":0.00040065,"MEAN_MOTION_DDOT":0},{"OBJECT_NAME":"JILIN-1 GAOFEN 03D52","OBJECT_ID":"2022-155E","EPOCH":"2026-07-23T19:53:17.666880","CLASSIFICATION_TYPE":"U","MEAN_MOTION":15.62721882,"ECCENTRICITY":0.0004138,"INCLINATION":97.6237,"RA_OF_ASC_NODE":350.7273,"ARG_OF_PERICENTER":216.5031,"MEAN_ANOMALY":143.5945,"EPHEMERIS_TYPE":0,"NORAD_CAT_ID":54255,"ELEMENT_SET_NO":999,"REV_AT_EPOCH":20542,"BSTAR":0.00067021,"MEAN_MOTION_DOT":0.00060344,"MEAN_MOTION_DDOT":0},{"OBJECT_NAME":"JILIN-1 GAOFEN 03D50","OBJECT_ID":"2022-167J","EPOCH":"2026-07-23T19:59:04.980192","CLASSIFICATION_TYPE":"U","MEAN_MOTION":15.35200849,"ECCENTRICITY":0.0004482,"INCLINATION":97.6861,"RA_OF_ASC_NODE":14.1993,"ARG_OF_PERICENTER":351.249,"MEAN_ANOMALY":8.8673,"EPHEMERIS_TYPE":0,"NORAD_CAT_ID":54690,"ELEMENT_SET_NO":999,"REV_AT_EPOCH":20097,"BSTAR":0.00035668,"MEAN_MOTION_DOT":0.00012112,"MEAN_MOTION_DDOT":0},{"OBJECT_NAME":"JILIN-1 GAOFEN 03D47","OBJECT_ID":"2022-167L","EPOCH":"2026-07-23T20:10:31.453248","CLASSIFICATION_TYPE":"U","MEAN_MOTION":15.34475825,"ECCENTRICITY":0.0007062,"INCLINATION":97.6958,"RA_OF_ASC_NODE":15.947,"ARG_OF_PERICENTER":359.8791,"MEAN_ANOMALY":0.2449,"EPHEMERIS_TYPE":0,"NORAD_CAT_ID":54692,"ELEMENT_SET_NO":999,"REV_AT_EPOCH":20096,"BSTAR":0.00034213,"MEAN_MOTION_DOT":0.00011353,"MEAN_MOTION_DDOT":0},{"OBJECT_NAME":"JILIN-1 GAOFEN 03D49","OBJECT_ID":"2022-167N","EPOCH":"2026-07-23T20:03:02.150784","CLASSIFICATION_TYPE":"U","MEAN_MOTION":15.38202155,"ECCENTRICITY":0.0005368,"INCLINATION":97.6835,"RA_OF_ASC_NODE":16.6348,"ARG_OF_PERICENTER":21.7356,"MEAN_ANOMALY":338.4115,"EPHEMERIS_TYPE":0,"NORAD_CAT_ID":54694,"ELEMENT_SET_NO":999,"REV_AT_EPOCH":20112,"BSTAR":0.00037321,"MEAN_MOTION_DOT":0.0001397,"MEAN_MOTION_DDOT":0},{"OBJECT_NAME":"JILIN-1 GAOFEN 03D48","OBJECT_ID":"2022-167P","EPOCH":"2026-07-23T19:42:24.604704","CLASSIFICATION_TYPE":"U","MEAN_MOTION":15.35935217,"ECCENTRICITY":0.000568,"INCLINATION":97.6907,"RA_OF_ASC_NODE":15.9233,"ARG_OF_PERICENTER":0.1601,"MEAN_ANOMALY":359.9642,"EPHEMERIS_TYPE":0,"NORAD_CAT_ID":54695,"ELEMENT_SET_NO":999,"REV_AT_EPOCH":20101,"BSTAR":0.00035973,"MEAN_MOTION_DOT":0.00012509,"MEAN_MOTION_DDOT":0},{"OBJECT_NAME":"JILIN GAOFEN OBJECT A","OBJECT_ID":"2026-080A","EPOCH":"2026-07-23T16:28:47.380800","CLASSIFICATION_TYPE":"U","MEAN_MOTION":15.09260145,"ECCENTRICITY":0.0010729,"INCLINATION":97.6606,"RA_OF_ASC_NODE":280.1542,"ARG_OF_PERICENTER":302.9298,"MEAN_ANOMALY":57.0898,"EPHEMERIS_TYPE":0,"NORAD_CAT_ID":68691,"ELEMENT_SET_NO":999,"REV_AT_EPOCH":1516,"BSTAR":0.00037939,"MEAN_MOTION_DOT":0.00005984,"MEAN_MOTION_DDOT":0},{"OBJECT_NAME":"JILIN GAOFEN OBJECT B","OBJECT_ID":"2026-080B","EPOCH":"2026-07-23T19:16:16.435200","CLASSIFICATION_TYPE":"U","MEAN_MOTION":15.08961733,"ECCENTRICITY":0.0015297,"INCLINATION":97.6586,"RA_OF_ASC_NODE":280.2775,"ARG_OF_PERICENTER":281.4343,"MEAN_ANOMALY":78.5167,"EPHEMERIS_TYPE":0,"NORAD_CAT_ID":68692,"ELEMENT_SET_NO":999,"REV_AT_EPOCH":1518,"BSTAR":0.00030231,"MEAN_MOTION_DOT":0.00004722,"MEAN_MOTION_DDOT":0},{"OBJECT_NAME":"JILIN GAOFEN OBJECT C","OBJECT_ID":"2026-080C","EPOCH":"2026-07-23T16:29:24.287424","CLASSIFICATION_TYPE":"U","MEAN_MOTION":15.08959197,"ECCENTRICITY":0.0013075,"INCLINATION":97.6591,"RA_OF_ASC_NODE":280.1323,"ARG_OF_PERICENTER":283.021,"MEAN_ANOMALY":76.9559,"EPHEMERIS_TYPE":0,"NORAD_CAT_ID":68693,"ELEMENT_SET_NO":999,"REV_AT_EPOCH":1516,"BSTAR":0.00040545,"MEAN_MOTION_DOT":0.00006351,"MEAN_MOTION_DDOT":0},{"OBJECT_NAME":"JILIN GAOFEN OBJECT D","OBJECT_ID":"2026-080D","EPOCH":"2026-07-23T19:16:58.894752","CLASSIFICATION_TYPE":"U","MEAN_MOTION":15.090213,"ECCENTRICITY":0.0015864,"INCLINATION":97.6651,"RA_OF_ASC_NODE":280.3598,"ARG_OF_PERICENTER":293.7192,"MEAN_ANOMALY":66.2372,"EPHEMERIS_TYPE":0,"NORAD_CAT_ID":68694,"ELEMENT_SET_NO":999,"REV_AT_EPOCH":1516,"BSTAR":0.0003424,"MEAN_MOTION_DOT":0.00005367,"MEAN_MOTION_DDOT":0},{"OBJECT_NAME":"JILIN GAOFEN OBJECT E","OBJECT_ID":"2026-080E","EPOCH":"2026-07-23T20:26:25.159776","CLASSIFICATION_TYPE":"U","MEAN_MOTION":15.0897971,"ECCENTRICITY":0.001324,"INCLINATION":97.6626,"RA_OF_ASC_NODE":280.4256,"ARG_OF_PERICENTER":303.9154,"MEAN_ANOMALY":56.0815,"EPHEMERIS_TYPE":0,"NORAD_CAT_ID":68695,"ELEMENT_SET_NO":999,"REV_AT_EPOCH":1515,"BSTAR":0.00031601,"MEAN_MOTION_DOT":0.00004938,"MEAN_MOTION_DDOT":0},{"OBJECT_NAME":"JILIN GAOFEN OBJECT F","OBJECT_ID":"2026-080F","EPOCH":"2026-07-23T20:25:08.616288","CLASSIFICATION_TYPE":"U","MEAN_MOTION":15.08963758,"ECCENTRICITY":0.0011906,"INCLINATION":97.6597,"RA_OF_ASC_NODE":280.3897,"ARG_OF_PERICENTER":306.6196,"MEAN_ANOMALY":53.3936,"EPHEMERIS_TYPE":0,"NORAD_CAT_ID":68696,"ELEMENT_SET_NO":999,"REV_AT_EPOCH":1515,"BSTAR":0.00032275,"MEAN_MOTION_DOT":0.00005041,"MEAN_MOTION_DDOT":0},{"OBJECT_NAME":"JILIN GAOFEN OBJECT G","OBJECT_ID":"2026-080G","EPOCH":"2026-07-23T20:05:10.397760","CLASSIFICATION_TYPE":"U","MEAN_MOTION":15.08954661,"ECCENTRICITY":0.0014279,"INCLINATION":97.6641,"RA_OF_ASC_NODE":280.465,"ARG_OF_PERICENTER":302.8469,"MEAN_ANOMALY":57.1384,"EPHEMERIS_TYPE":0,"NORAD_CAT_ID":68697,"ELEMENT_SET_NO":999,"REV_AT_EPOCH":1515,"BSTAR":0.00040921,"MEAN_MOTION_DOT":0.00006412,"MEAN_MOTION_DDOT":0},{"OBJECT_NAME":"JILIN GAOFEN OBJECT H","OBJECT_ID":"2026-080H","EPOCH":"2026-07-23T16:51:02.733408","CLASSIFICATION_TYPE":"U","MEAN_MOTION":15.08981319,"ECCENTRICITY":0.0014565,"INCLINATION":97.6629,"RA_OF_ASC_NODE":280.3198,"ARG_OF_PERICENTER":305.4095,"MEAN_ANOMALY":54.5772,"EPHEMERIS_TYPE":0,"NORAD_CAT_ID":68698,"ELEMENT_SET_NO":999,"REV_AT_EPOCH":1513,"BSTAR":0.0003729,"MEAN_MOTION_DOT":0.00005842,"MEAN_MOTION_DDOT":0}]}
